{
  "type": "FeatureCollection",
  "features": [
    {
      "type": "Feature",
      "properties": {
        "norad_id": 22490,
        "name": "SCD 1",
        "group": "resource",
        "lat": 0.644382124508904,
        "lon": 125.57711718541954,
        "alt_km": 740.6175453943406,
        "timestamp": "2025-12-08T03:50:06.661253+00:00",
        "meta_object_name": "SCD 1",
        "meta_object_id": "1993-009B",
        "meta_epoch": "2025-12-07T07:47:39.088608",
        "meta_mean_motion": 14.45993022,
        "meta_eccentricity": 0.00417319,
        "meta_inclination": 24.9707,
        "meta_ra_of_asc_node": 312.114,
        "meta_arg_of_pericenter": 267.4179,
        "meta_mean_anomaly": 235.7721,
        "meta_ephemeris_type": 0,
        "meta_classification_type": "U",
        "meta_norad_cat_id": 22490,
        "meta_element_set_no": 999,
        "meta_rev_at_epoch": 73331,
        "meta_bstar": 0.00017637997,
        "meta_mean_motion_dot": 8.31e-06,
        "meta_mean_motion_ddot": 0,
        "tle_line1": "1 22490U 93009B   25341.32475797  .00000831  00000+0  17638-3 0  9996",
        "tle_line2": "2 22490  24.9707 312.1140 0041731 267.4179 235.7721 14.45993022733315"
      },
      "geometry": {
        "type": "Point",
        "coordinates": [
          125.57711718541954,
          0.644382124508904
        ]
      }
    },
    {
      "type": "Feature",
      "properties": {
        "norad_id": 25397,
        "name": "TECHSAT 1B (GO-32)",
        "group": "resource",
        "lat": 78.3121410600469,
        "lon": -164.79374963801095,
        "alt_km": 801.9425337994462,
        "timestamp": "2025-12-08T03:50:06.661281+00:00",
        "meta_object_name": "TECHSAT 1B (GO-32)",
        "meta_object_id": "1998-043D",
        "meta_epoch": "2025-12-07T05:27:45.991296",
        "meta_mean_motion": 14.24374707,
        "meta_eccentricity": 0.00021858,
        "meta_inclination": 98.9914,
        "meta_ra_of_asc_node": 324.3126,
        "meta_arg_of_pericenter": 66.2353,
        "meta_mean_anomaly": 293.9054,
        "meta_ephemeris_type": 0,
        "meta_classification_type": "U",
        "meta_norad_cat_id": 25397,
        "meta_element_set_no": 999,
        "meta_rev_at_epoch": 42400,
        "meta_bstar": 0.00010379752,
        "meta_mean_motion_dot": 1.93e-06,
        "meta_mean_motion_ddot": 0,
        "tle_line1": "1 25397U 98043D   25341.22761564  .00000193  00000+0  10380-3 0  9995",
        "tle_line2": "2 25397  98.9914 324.3126 0002185  66.2353 293.9054 14.24374707424001"
      },
      "geometry": {
        "type": "Point",
        "coordinates": [
          -164.79374963801095,
          78.3121410600469
        ]
      }
    },
    {
      "type": "Feature",
      "properties": {
        "norad_id": 25504,
        "name": "SCD 2",
        "group": "resource",
        "lat": -15.891839863834257,
        "lon": 27.812337925785393,
        "alt_km": 731.990615889923,
        "timestamp": "2025-12-08T03:50:06.661297+00:00",
        "meta_object_name": "SCD 2",
        "meta_object_id": "1998-060A",
        "meta_epoch": "2025-12-07T06:01:13.655136",
        "meta_mean_motion": 14.45418714,
        "meta_eccentricity": 0.00165944,
        "meta_inclination": 24.9933,
        "meta_ra_of_asc_node": 175.7425,
        "meta_arg_of_pericenter": 254.8702,
        "meta_mean_anomaly": 266.3305,
        "meta_ephemeris_type": 0,
        "meta_classification_type": "U",
        "meta_norad_cat_id": 25504,
        "meta_element_set_no": 999,
        "meta_rev_at_epoch": 43252,
        "meta_bstar": 0.00013275837,
        "meta_mean_motion_dot": 6.58e-06,
        "meta_mean_motion_ddot": 0,
        "tle_line1": "1 25504U 98060A   25341.25085249  .00000658  00000+0  13276-3 0  9999",
        "tle_line2": "2 25504  24.9933 175.7425 0016594 254.8702 266.3305 14.45418714432522"
      },
      "geometry": {
        "type": "Point",
        "coordinates": [
          27.812337925785393,
          -15.891839863834257
        ]
      }
    },
    {
      "type": "Feature",
      "properties": {
        "norad_id": 25757,
        "name": "DLR-TUBSAT",
        "group": "resource",
        "lat": -34.85462724014157,
        "lon": 140.44226652304758,
        "alt_km": 714.6373978498477,
        "timestamp": "2025-12-08T03:50:06.661310+00:00",
        "meta_object_name": "DLR-TUBSAT",
        "meta_object_id": "1999-029B",
        "meta_epoch": "2025-12-07T05:21:07.781472",
        "meta_mean_motion": 14.52354352,
        "meta_eccentricity": 0.00135941,
        "meta_inclination": 98.6558,
        "meta_ra_of_asc_node": 325.5666,
        "meta_arg_of_pericenter": 210.0792,
        "meta_mean_anomaly": 149.9623,
        "meta_ephemeris_type": 0,
        "meta_classification_type": "U",
        "meta_norad_cat_id": 25757,
        "meta_element_set_no": 999,
        "meta_rev_at_epoch": 40538,
        "meta_bstar": 7.8775845e-05,
        "meta_mean_motion_dot": 2.73e-06,
        "meta_mean_motion_ddot": 0,
        "tle_line1": "1 25757U 99029B   25341.22300673  .00000273  00000+0  78776-4 0  9993",
        "tle_line2": "2 25757  98.6558 325.5666 0013594 210.0792 149.9623 14.52354352405383"
      },
      "geometry": {
        "type": "Point",
        "coordinates": [
          140.44226652304758,
          -34.85462724014157
        ]
      }
    },
    {
      "type": "Feature",
      "properties": {
        "norad_id": 25994,
        "name": "TERRA",
        "group": "resource",
        "lat": 41.50346305977162,
        "lon": -138.8616190701411,
        "alt_km": 684.6835575047098,
        "timestamp": "2025-12-08T03:50:06.661322+00:00",
        "meta_object_name": "TERRA",
        "meta_object_id": "1999-068A",
        "meta_epoch": "2025-12-07T07:47:19.080960",
        "meta_mean_motion": 14.60943335,
        "meta_eccentricity": 0.00035098,
        "meta_inclination": 97.9756,
        "meta_ra_of_asc_node": 33.2076,
        "meta_arg_of_pericenter": 108.822,
        "meta_mean_anomaly": 318.6631,
        "meta_ephemeris_type": 0,
        "meta_classification_type": "U",
        "meta_norad_cat_id": 25994,
        "meta_element_set_no": 999,
        "meta_rev_at_epoch": 38159,
        "meta_bstar": 0.00021016682,
        "meta_mean_motion_dot": 9.85e-06,
        "meta_mean_motion_ddot": 0,
        "tle_line1": "1 25994U 99068A   25341.32452640  .00000985  00000+0  21017-3 0  9997",
        "tle_line2": "2 25994  97.9756  33.2076 0003509 108.8220 318.6631 14.60943335381595"
      },
      "geometry": {
        "type": "Point",
        "coordinates": [
          -138.8616190701411,
          41.50346305977162
        ]
      }
    },
    {
      "type": "Feature",
      "properties": {
        "norad_id": 27004,
        "name": "MAROC-TUBSAT",
        "group": "resource",
        "lat": 1.4156696161922557,
        "lon": -29.231490105073597,
        "alt_km": 1002.2383220073698,
        "timestamp": "2025-12-08T03:50:06.661334+00:00",
        "meta_object_name": "MAROC-TUBSAT",
        "meta_object_id": "2001-056D",
        "meta_epoch": "2025-12-07T05:03:31.847328",
        "meta_mean_motion": 13.70252464,
        "meta_eccentricity": 0.00190865,
        "meta_inclination": 99.7911,
        "meta_ra_of_asc_node": 149.5589,
        "meta_arg_of_pericenter": 274.8569,
        "meta_mean_anomaly": 264.8411,
        "meta_ephemeris_type": 0,
        "meta_classification_type": "U",
        "meta_norad_cat_id": 27004,
        "meta_element_set_no": 999,
        "meta_rev_at_epoch": 19989,
        "meta_bstar": 3.2828937e-05,
        "meta_mean_motion_dot": -1.8e-07,
        "meta_mean_motion_ddot": 0,
        "tle_line1": "1 27004U 01056D   25341.21078527 -.00000018  00000+0  32829-4 0  9999",
        "tle_line2": "2 27004  99.7911 149.5589 0019086 274.8569 264.8411 13.70252464199893"
      },
      "geometry": {
        "type": "Point",
        "coordinates": [
          -29.231490105073597,
          1.4156696161922557
        ]
      }
    },
    {
      "type": "Feature",
      "properties": {
        "norad_id": 27424,
        "name": "AQUA",
        "group": "resource",
        "lat": -2.0557719286150995,
        "lon": -56.73176776343198,
        "alt_km": 690.8876039180541,
        "timestamp": "2025-12-08T03:50:06.661345+00:00",
        "meta_object_name": "AQUA",
        "meta_object_id": "2002-022A",
        "meta_epoch": "2025-12-07T06:58:25.283424",
        "meta_mean_motion": 14.61789686,
        "meta_eccentricity": 9.201e-05,
        "meta_inclination": 98.4032,
        "meta_ra_of_asc_node": 302.081,
        "meta_arg_of_pericenter": 113.6327,
        "meta_mean_anomaly": 352.8487,
        "meta_ephemeris_type": 0,
        "meta_classification_type": "U",
        "meta_norad_cat_id": 27424,
        "meta_element_set_no": 999,
        "meta_rev_at_epoch": 25523,
        "meta_bstar": 0.00043645437,
        "meta_mean_motion_dot": 2.129e-05,
        "meta_mean_motion_ddot": 0,
        "tle_line1": "1 27424U 02022A   25341.29057041  .00002129  00000+0  43645-3 0  9996",
        "tle_line2": "2 27424  98.4032 302.0810 0000920 113.6327 352.8487 14.61789686255235"
      },
      "geometry": {
        "type": "Point",
        "coordinates": [
          -56.73176776343198,
          -2.0557719286150995
        ]
      }
    }
  ]
}